{"fetched_at":"2026-03-29T16:36:15Z","count":15609,"tles":[{"name":"STARLINK-35654","line1":"1 66483U 25262AD  26087.67956457  .00022304  00000+0  81691-3 0  9994","line2":"2 66483  43.0031 188.6617 0001391 272.4756  87.5936 15.27606599 21814","category":"Starlink"}]}